GSAT0209 (GALILEO 12)   
1 41174U 15079A   26200.88772413 -.00000039  00000+0  00000+0 0  9990
2 41174  55.8457 100.3644 0004618 358.4074   1.6290  1.70473671 65332
GSAT0208 (GALILEO 11)   
1 41175U 15079B   26202.86782092 -.00000047  00000+0  00000+0 0  9994
2 41175  55.8455 100.3069 0004206   2.1198 357.9162  1.70473606 65787
ORBCOMM FM110           
1 41182U 15081D   26204.33230193  .00000700  00000+0  18419-3 0  9991
2 41182  47.0004 190.5313 0003835 254.1022 105.9441 14.58928581562907
ORBCOMM FM118           
1 41183U 15081E   26204.36681444  .00000614  00000+0  16589-3 0  9994
2 41183  47.0026 190.7088 0003284 220.0538 140.0106 14.58912847563014
ORBCOMM FM112           
1 41184U 15081F   26204.43910998  .00000575  00000+0  15772-3 0  9991
2 41184  46.9990  98.8143 0003182   5.2324 354.8595 14.58948016564246
ORBCOMM FM113           
1 41185U 15081G   26204.07460570  .00000311  00000+0  10187-3 0  9991
2 41185  47.0007 100.9337 0001765 353.8183   6.2680 14.58888123564175
ORBCOMM FM108           
1 41187U 15081J   26204.51583634  .00000493  00000+0  14030-3 0  9991
2 41187  47.0061  10.4291 0002096 355.3827   4.7039 14.58918953565381
ORBCOMM FM117           
1 41188U 15081K   26204.48164395  .00000486  00000+0  13899-3 0  9991
2 41188  47.0024   9.2159 0002489   4.0715 356.0191 14.58905810565425
ORBCOMM FM116           
1 41189U 15081L   26204.39324306  .00000490  00000+0  13968-3 0  9994
2 41189  47.0023  99.4237 0001764 251.6985 108.3709 14.58914992564228
EXPRESS-AMU1            
1 41191U 15082A   26204.54818484  .00000160  00000+0  00000+0 0  9993
2 41191   0.0166  64.4296 0002527  58.2287  52.0389  1.00270983 38637
GAOFEN-4                
1 41194U 15083A   26202.59970686 -.00000333  00000+0  00000+0 0  9996
2 41194   0.4439  83.8614 0004162 121.1097  55.9718  1.00270335 38877
BELINTERSAT-1           
1 41238U 16001A   26204.55121818  .00000112  00000+0  00000+0 0  9993
2 41238   0.0327 235.2400 0001791 196.2701 119.7161  1.00269927 38601
JASON-3                 
1 41240U 16002A   26204.58527186 -.00000044  00000+0  71213-4 0  9992
2 41240  66.0415  49.3119 0008119 270.0660  89.9428 12.87629004491937
IRNSS-1E                
1 41241U 16003A   26202.03020233 -.00000317  00000+0  00000+0 0  9997
2 41241  33.3051  59.2585 0019282 176.3074 185.9195  1.00275296 38420
EUTELSAT 9B             
1 41310U 16005A   26204.54281148  .00000066  00000+0  00000+0 0  9998
2 41310   0.0189  46.1369 0001241  64.6402  34.9051  1.00269810 38480
NAVSTAR 76 (USA 266)    
1 41328U 16007A   26201.77276081 -.00000059  00000+0  00000+0 0  9994
2 41328  55.5446  88.1275 0096649 247.5642 111.4594  2.00575241 76514
COSMOS 2514 [GLONASS-M] 
1 41330U 16008A   26204.41821105 -.00000088  00000+0  00000+0 0  9997
2 41330  64.9975 311.7630 0012557 202.1470 157.8201  2.13102761 81398
SENTINEL-3A             
1 41335U 16011A   26204.61394427  .00000137  00000+0  74790-4 0  9996
2 41335  98.6231 271.4708 0001290  86.8631 273.2698 14.26736152543253
SES-9                   
1 41380U 16013A   26204.56251163 -.00000340  00000+0  00000+0 0  9996
2 41380   0.0185 326.6761 0002430 139.0579 146.3674  1.00271796 37808
EUTELSAT 65 WEST A      
1 41382U 16014A   26204.52807808 -.00000271  00000+0  00000+0 0  9991
2 41382   0.0816 301.5892 0002430 174.7502 309.8430  1.00271782 37890
IRNSS-1F                
1 41384U 16015A   26204.26229580  .00000157  00000+0  00000+0 0  9992
2 41384   5.4366  95.9506 0017811 179.6499 152.2326  1.00270531 38026
COSMOS 2515             
1 41394U 16020A   26204.61415022  .00000841  00000+0  58786-4 0  9995
2 41394  97.9762 221.4632 0023430 175.2266 184.9189 15.08043708565905
BEIDOU-2 IGSO-6         
1 41434U 16021A   26177.11016981 -.00000145  00000+0  00000+0 0  9995
2 41434  60.2385  37.9495 0057558 231.0163 137.2672  1.00258926 37578
IRNSS-1G                
1 41469U 16027A   26204.54197624 -.00000335  00000+0  00000+0 0  9992
2 41469   5.2833  96.6329 0005779  13.8468 155.4780  1.00265450 37542
JCSAT-2B                
1 41471U 16028A   26204.57152500 -.00000160  00000+0  00000+0 0  9999
2 41471   0.0181  61.8798 0001151  42.7133 196.4604  1.00272507 37493
YAOGAN-30 01            
1 41473U 16029A   26204.62113668  .00000519  00000+0  81977-4 0  9994
2 41473  97.8994 253.7253 0016967 113.6213 246.6780 14.76304815549044
GSAT0211 (GALILEO 14)   
1 41549U 16030A   26201.23161694  .00000057  00000+0  00000+0 0  9996
2 41549  55.0891 220.7852 0003443 318.9851  41.0285  1.70473740 63235
GSAT0210 (GALILEO 13)   
1 41550U 16030B   26204.42178794  .00000076  00000+0  00000+0 0  9992
2 41550  55.0870 220.6957 0004720 247.6947 112.3044  1.70473980 63288
THAICOM 8               
1 41552U 16031A   26204.55661828 -.00000116  00000+0  00000+0 0  9990
2 41552   0.0658  41.6564 0003110  37.7337 140.7675  1.00272122 37084
ZIYUAN 3-02 (ZY 3-02)   
1 41556U 16033A   26204.62853110  .00005926  00000+0  26838-3 0  9995
2 41556  97.3822 279.7009 0013609 158.8968 201.2832 15.21165215563520
COSMOS 2517 (GEO-IK 2)  
1 41579U 16034A   26204.60097248 -.00000013  00000+0  26876-4 0  9997
2 41579  99.1891 212.6970 0001055  93.8423 266.2854 13.85906377512675
